{
  "type": "FeatureCollection",
  "features": [
    {
      "type": "Feature",
      "properties": {
        "norad_id": 33860,
        "name": "IRIDIUM 33 DEB",
        "group": "iridium-33-debris",
        "lat": 32.67576612731517,
        "lon": 29.54063326833407,
        "alt_km": 663.2724582555102,
        "timestamp": "2025-12-12T18:57:44.514234+00:00",
        "meta_object_name": "IRIDIUM 33 DEB",
        "meta_object_id": "1997-051AD",
        "meta_epoch": "2025-12-12T02:34:47.224128",
        "meta_mean_motion": 14.67356525,
        "meta_eccentricity": 0.00075567,
        "meta_inclination": 86.3837,
        "meta_ra_of_asc_node": 27.5179,
        "meta_arg_of_pericenter": 359.9518,
        "meta_mean_anomaly": 29.3124,
        "meta_ephemeris_type": 0,
        "meta_classification_type": "U",
        "meta_norad_cat_id": 33860,
        "meta_element_set_no": 999,
        "meta_rev_at_epoch": 88713,
        "meta_bstar": 0.0018445865,
        "meta_mean_motion_dot": 0.00010448,
        "meta_mean_motion_ddot": 0,
        "tle_line1": "1 33860U 97051AD  25346.10749102  .00010448  00000+0  18446-2 0  9997",
        "tle_line2": "2 33860  86.3837  27.5179 0007556 359.9518  29.3124 14.67356525887133"
      },
      "geometry": {
        "type": "Point",
        "coordinates": [
          29.54063326833407,
          32.67576612731517
        ]
      }
    },
    {
      "type": "Feature",
      "properties": {
        "norad_id": 33862,
        "name": "IRIDIUM 33 DEB",
        "group": "iridium-33-debris",
        "lat": 68.13167972601511,
        "lon": 46.5089596752779,
        "alt_km": 618.511847341103,
        "timestamp": "2025-12-12T18:57:44.514244+00:00",
        "meta_object_name": "IRIDIUM 33 DEB",
        "meta_object_id": "1997-051AF",
        "meta_epoch": "2025-12-12T04:11:14.356608",
        "meta_mean_motion": 14.69464382,
        "meta_eccentricity": 0.00535195,
        "meta_inclination": 86.4093,
        "meta_ra_of_asc_node": 37.7792,
        "meta_arg_of_pericenter": 71.1208,
        "meta_mean_anomaly": 342.7383,
        "meta_ephemeris_type": 0,
        "meta_classification_type": "U",
        "meta_norad_cat_id": 33862,
        "meta_element_set_no": 999,
        "meta_rev_at_epoch": 88815,
        "meta_bstar": 0.002179996,
        "meta_mean_motion_dot": 0.00013234,
        "meta_mean_motion_ddot": 0,
        "tle_line1": "1 33862U 97051AF  25346.17447172  .00013234  00000+0  21800-2 0  9992",
        "tle_line2": "2 33862  86.4093  37.7792 0053519  71.1208 342.7383 14.69464382888158"
      },
      "geometry": {
        "type": "Point",
        "coordinates": [
          46.5089596752779,
          68.13167972601511
        ]
      }
    },
    {
      "type": "Feature",
      "properties": {
        "norad_id": 33866,
        "name": "IRIDIUM 33 DEB",
        "group": "iridium-33-debris",
        "lat": 54.80914874615993,
        "lon": -92.25140807354124,
        "alt_km": 735.7947325722926,
        "timestamp": "2025-12-12T18:57:44.514255+00:00",
        "meta_object_name": "IRIDIUM 33 DEB",
        "meta_object_id": "1997-051AK",
        "meta_epoch": "2025-12-12T06:51:08.189280",
        "meta_mean_motion": 14.25273086,
        "meta_eccentricity": 0.01144477,
        "meta_inclination": 86.2996,
        "meta_ra_of_asc_node": 93.2276,
        "meta_arg_of_pericenter": 162.8384,
        "meta_mean_anomaly": 255.4806,
        "meta_ephemeris_type": 0,
        "meta_classification_type": "U",
        "meta_norad_cat_id": 33866,
        "meta_element_set_no": 999,
        "meta_rev_at_epoch": 86804,
        "meta_bstar": 0.0010790636,
        "meta_mean_motion_dot": 2.737e-05,
        "meta_mean_motion_ddot": 0,
        "tle_line1": "1 33866U 97051AK  25346.28551145  .00002737  00000+0  10791-2 0  9997",
        "tle_line2": "2 33866  86.2996  93.2276 0114447 162.8384 255.4806 14.25273086868044"
      },
      "geometry": {
        "type": "Point",
        "coordinates": [
          -92.25140807354124,
          54.80914874615993
        ]
      }
    },
    {
      "type": "Feature",
      "properties": {
        "norad_id": 33867,
        "name": "IRIDIUM 33 DEB",
        "group": "iridium-33-debris",
        "lat": -5.75885537875375,
        "lon": 170.4462122773905,
        "alt_km": 370.5997127007149,
        "timestamp": "2025-12-12T18:57:44.514266+00:00",
        "meta_object_name": "IRIDIUM 33 DEB",
        "meta_object_id": "1997-051AL",
        "meta_epoch": "2025-12-11T23:46:57.533088",
        "meta_mean_motion": 15.66357552,
        "meta_eccentricity": 0.0013372,
        "meta_inclination": 86.3648,
        "meta_ra_of_asc_node": 350.4931,
        "meta_arg_of_pericenter": 89.3333,
        "meta_mean_anomaly": 270.9467,
        "meta_ephemeris_type": 0,
        "meta_classification_type": "U",
        "meta_norad_cat_id": 33867,
        "meta_element_set_no": 999,
        "meta_rev_at_epoch": 89499,
        "meta_bstar": 0.0085222,
        "meta_mean_motion_dot": 0.00974295,
        "meta_mean_motion_ddot": 0,
        "tle_line1": "1 33867U 97051AL  25345.99094367  .00974295  00000+0  85222-2 0  9991",
        "tle_line2": "2 33867  86.3648 350.4931 0013372  89.3333 270.9467 15.66357552894993"
      },
      "geometry": {
        "type": "Point",
        "coordinates": [
          170.4462122773905,
          -5.75885537875375
        ]
      }
    },
    {
      "type": "Feature",
      "properties": {
        "norad_id": 33870,
        "name": "IRIDIUM 33 DEB",
        "group": "iridium-33-debris",
        "lat": -48.34838076575556,
        "lon": -117.67328841077341,
        "alt_km": 736.4627283532163,
        "timestamp": "2025-12-12T18:57:44.514276+00:00",
        "meta_object_name": "IRIDIUM 33 DEB",
        "meta_object_id": "1997-051AP",
        "meta_epoch": "2025-12-12T04:45:01.506240",
        "meta_mean_motion": 14.45848018,
        "meta_eccentricity": 0.00214302,
        "meta_inclination": 86.3745,
        "meta_ra_of_asc_node": 58.4928,
        "meta_arg_of_pericenter": 179.7274,
        "meta_mean_anomaly": 208.1906,
        "meta_ephemeris_type": 0,
        "meta_classification_type": "U",
        "meta_norad_cat_id": 33870,
        "meta_element_set_no": 999,
        "meta_rev_at_epoch": 88129,
        "meta_bstar": 0.0012642257,
        "meta_mean_motion_dot": 4.519e-05,
        "meta_mean_motion_ddot": 0,
        "tle_line1": "1 33870U 97051AP  25346.19793410  .00004519  00000+0  12642-2 0  9992",
        "tle_line2": "2 33870  86.3745  58.4928 0021430 179.7274 208.1906 14.45848018881296"
      },
      "geometry": {
        "type": "Point",
        "coordinates": [
          -117.67328841077341,
          -48.34838076575556
        ]
      }
    },
    {
      "type": "Feature",
      "properties": {
        "norad_id": 33881,
        "name": "IRIDIUM 33 DEB",
        "group": "iridium-33-debris",
        "lat": 81.48305848537616,
        "lon": -98.24287275583524,
        "alt_km": 686.6684052455912,
        "timestamp": "2025-12-12T18:57:44.514287+00:00",
        "meta_object_name": "IRIDIUM 33 DEB",
        "meta_object_id": "1997-051BA",
        "meta_epoch": "2025-12-12T03:55:05.957760",
        "meta_mean_motion": 14.56558764,
        "meta_eccentricity": 0.00614654,
        "meta_inclination": 86.386,
        "meta_ra_of_asc_node": 106.9929,
        "meta_arg_of_pericenter": 176.5725,
        "meta_mean_anomaly": 237.0343,
        "meta_ephemeris_type": 0,
        "meta_classification_type": "U",
        "meta_norad_cat_id": 33881,
        "meta_element_set_no": 999,
        "meta_rev_at_epoch": 87492,
        "meta_bstar": 0.0031107263,
        "meta_mean_motion_dot": 0.00014247,
        "meta_mean_motion_ddot": 0,
        "tle_line1": "1 33881U 97051BA  25346.16326340  .00014247  00000+0  31107-2 0  9991",
        "tle_line2": "2 33881  86.3860 106.9929 0061465 176.5725 237.0343 14.56558764874920"
      },
      "geometry": {
        "type": "Point",
        "coordinates": [
          -98.24287275583524,
          81.48305848537616
        ]
      }
    },
    {
      "type": "Feature",
      "properties": {
        "norad_id": 33884,
        "name": "IRIDIUM 33 DEB",
        "group": "iridium-33-debris",
        "lat": 48.73348272678047,
        "lon": 13.944213541215483,
        "alt_km": 632.5720247604577,
        "timestamp": "2025-12-12T18:57:44.514297+00:00",
        "meta_object_name": "IRIDIUM 33 DEB",
        "meta_object_id": "1997-051BD",
        "meta_epoch": "2025-12-12T01:07:10.833024",
        "meta_mean_motion": 14.77408265,
        "meta_eccentricity": 0.00097443,
        "meta_inclination": 86.3699,
        "meta_ra_of_asc_node": 10.1308,
        "meta_arg_of_pericenter": 326.4674,
        "meta_mean_anomaly": 90.7894,
        "meta_ephemeris_type": 0,
        "meta_classification_type": "U",
        "meta_norad_cat_id": 33884,
        "meta_element_set_no": 999,
        "meta_rev_at_epoch": 88837,
        "meta_bstar": 0.0020846826,
        "meta_mean_motion_dot": 0.00014881,
        "meta_mean_motion_ddot": 0,
        "tle_line1": "1 33884U 97051BD  25346.04665316  .00014881  00000+0  20847-2 0  9993",
        "tle_line2": "2 33884  86.3699  10.1308 0009744 326.4674  90.7894 14.77408265888373"
      },
      "geometry": {
        "type": "Point",
        "coordinates": [
          13.944213541215483,
          48.73348272678047
        ]
      }
    }
  ]
}